STARLINK-31816          
1 59742U 24090N   26068.35089778 -.00001880  00000+0 -58813-4 0  9998
2 59742  42.9989 185.7850 0001371 286.0581  74.0119 15.27579477103365
LIME                    
1 62648U 25009AR  26068.73906781  .00013254  00000+0  47723-3 0  9995
2 62648  97.3985 151.4831 0001635  35.9029 324.2320 15.28703313 63766
